STARLINK-30069          
1 56834U 23079M   26067.48212902 -.00002416  00000+0 -80472-4 0  9995
2 56834  42.9986 110.4464 0000469 272.6695  87.4103 15.26726881152740
STARLINK-31113          
1 58668U 23211B   26068.07198492 -.00001568  00000+0 -47465-4 0  9995
2 58668  43.0030  88.4648 0001008 277.8231  82.2506 15.27578061122372
